start=new Date('2023-03-03T00:00:00.000Z').valueOf();
sats=[{"FILE":"3849487","NORAD_CAT_ID":"51975","MEAN_ELEMENT_THEORY":"SGP4","ELEMENT_SET_NO":"999","CLASSIFICATION_TYPE":"U","ARG_OF_PERICENTER":"100.1804","CENTER_NAME":"EARTH","ECCENTRICITY":"0.00011150","MEAN_MOTION_DDOT":"0.0000000000000","INCLINATION":"53.2153","RCS_SIZE":"LARGE","TIME_SYSTEM":"UTC","OBJECT_NAME":"STARLINK-3674","REV_AT_EPOCH":"5471","TLE_LINE2":"2 51975  53.2153 299.7308 0001115 100.1804 259.9314 15.10509393 54714","LAUNCH_DATE":"2022-03-09","PERIAPSIS":"533.877","EPHEMERIS_TYPE":"0","MEAN_MOTION_DOT":"0.00012427","REF_FRAME":"TEME","TLE_LINE1":"1 51975U 22025V   23061.82247743  .00012427  00000-0  76203-3 0  9994","SITE":"AFETR","BSTAR":"0.00076203000000","PERIOD":"95.332","OBJECT_TYPE":"PAYLOAD","DECAY_DATE":null,"GP_ID":"227361738","MEAN_MOTION":"15.10509393","MEAN_ANOMALY":"259.9314","OBJECT_ID":"2022-025V","RA_OF_ASC_NODE":"299.7308","EPOCH":"2023-03-02T19:44:22.049952","APOAPSIS":"535.418","COUNTRY_CODE":"US","SEMIMAJOR_AXIS":"6912.782"},{"ARG_OF_PERICENTER":"62.3801","CENTER_NAME":"EARTH","CLASSIFICATION_TYPE":"U","MEAN_MOTION_DDOT":"0.0000000000000","ECCENTRICITY":"0.00014070","REV_AT_EPOCH":"5446","TIME_SYSTEM":"UTC","RCS_SIZE":"LARGE","INCLINATION":"53.2158","OBJECT_NAME":"STARLINK-3663","LAUNCH_DATE":"2022-03-09","TLE_LINE2":"2 51976  53.2158 313.2150 0001407  62.3801 297.7334 15.08854998 54462","PERIAPSIS":"538.726","FILE":"3849487","NORAD_CAT_ID":"51976","MEAN_ELEMENT_THEORY":"SGP4","ELEMENT_SET_NO":"999","MEAN_MOTION":"15.08854998","DECAY_DATE":null,"GP_ID":"227361988","OBJECT_ID":"2022-025W","MEAN_ANOMALY":"297.7334","EPOCH":"2023-03-02T03:00:57.676320","RA_OF_ASC_NODE":"313.2150","COUNTRY_CODE":"US","SEMIMAJOR_AXIS":"6917.835","APOAPSIS":"540.673","EPHEMERIS_TYPE":"0","MEAN_MOTION_DOT":"0.00031753","REF_FRAME":"TEME","PERIOD":"95.437","BSTAR":"0.00200340000000","TLE_LINE1":"1 51976U 22025W   23061.12566755  .00031753  00000-0  20034-2 0  9998","SITE":"AFETR","OBJECT_TYPE":"PAYLOAD"},{"FILE":"3849487","ELEMENT_SET_NO":"999","MEAN_ELEMENT_THEORY":"SGP4","NORAD_CAT_ID":"51977","CLASSIFICATION_TYPE":"U","ARG_OF_PERICENTER":"65.9957","CENTER_NAME":"EARTH","PERIAPSIS":"538.769","TLE_LINE2":"2 51977  53.2141 290.8460 0001332  65.9957 294.1175 15.08858079 54814","LAUNCH_DATE":"2022-03-09","RCS_SIZE":"LARGE","INCLINATION":"53.2141","OBJECT_NAME":"STARLINK-3660","TIME_SYSTEM":"UTC","REV_AT_EPOCH":"5481","ECCENTRICITY":"0.00013320","MEAN_MOTION_DDOT":"0.0000000000000","REF_FRAME":"TEME","MEAN_MOTION_DOT":"0.00013297","EPHEMERIS_TYPE":"0","OBJECT_TYPE":"PAYLOAD","TLE_LINE1":"1 51977U 22025X   23061.65374688  .00013297  00000-0  85153-3 0  9996","SITE":"AFETR","PERIOD":"95.436","BSTAR":"0.00085153000000","APOAPSIS":"540.612","COUNTRY_CODE":"US","SEMIMAJOR_AXIS":"6917.825","RA_OF_ASC_NODE":"290.8460","EPOCH":"2023-03-02T15:41:23.730432","MEAN_ANOMALY":"294.1175","OBJECT_ID":"2022-025X","GP_ID":"227362246","DECAY_DATE":null,"MEAN_MOTION":"15.08858079"},{"ELEMENT_SET_NO":"999","NORAD_CAT_ID":"51978","MEAN_ELEMENT_THEORY":"SGP4","FILE":"3849487","TLE_LINE2":"2 51978  53.2180 309.9981 0001584  80.9129 279.2042 15.08723323 54567","LAUNCH_DATE":"2022-03-09","PERIAPSIS":"539.006","ECCENTRICITY":"0.00015840","MEAN_MOTION_DDOT":"0.0000000000000","INCLINATION":"53.2180","RCS_SIZE":"LARGE","TIME_SYSTEM":"UTC","OBJECT_NAME":"STARLINK-3666","REV_AT_EPOCH":"5456","CLASSIFICATION_TYPE":"U","CENTER_NAME":"EARTH","ARG_OF_PERICENTER":"80.9129","OBJECT_TYPE":"PAYLOAD","SITE":"AFETR","TLE_LINE1":"1 51978U 22025Y   23061.84314491  .00032141  00000-0  20348-2 0  9997","PERIOD":"95.445","BSTAR":"0.00203480000000","MEAN_MOTION_DOT":"0.00032141","REF_FRAME":"TEME","EPHEMERIS_TYPE":"0","RA_OF_ASC_NODE":"309.9981","EPOCH":"2023-03-02T20:14:07.720224","APOAPSIS":"541.198","COUNTRY_CODE":"US","SEMIMAJOR_AXIS":"6918.237","DECAY_DATE":null,"GP_ID":"227362990","MEAN_MOTION":"15.08723323","MEAN_ANOMALY":"279.2042","OBJECT_ID":"2022-025Y"},{"REV_AT_EPOCH":"5455","RCS_SIZE":"LARGE","OBJECT_NAME":"STARLINK-3656","INCLINATION":"53.2152","TIME_SYSTEM":"UTC","MEAN_MOTION_DDOT":"0.0000000000000","ECCENTRICITY":"0.00006910","PERIAPSIS":"539.173","LAUNCH_DATE":"2022-03-09","TLE_LINE2":"2 51979  53.2152 310.5240 0000691  85.3117 274.7954 15.08870780 54558","ARG_OF_PERICENTER":"85.3117","CENTER_NAME":"EARTH","CLASSIFICATION_TYPE":"U","MEAN_ELEMENT_THEORY":"SGP4","NORAD_CAT_ID":"51979","ELEMENT_SET_NO":"999","FILE":"3849487","OBJECT_ID":"2022-025Z","MEAN_ANOMALY":"274.7954","MEAN_MOTION":"15.08870780","DECAY_DATE":null,"GP_ID":"227361245","SEMIMAJOR_AXIS":"6917.786","COUNTRY_CODE":"US","APOAPSIS":"540.129","EPOCH":"2023-03-02T17:24:43.476480","RA_OF_ASC_NODE":"310.5240","BSTAR":"0.00160330000000","PERIOD":"95.436","SITE":"AFETR","TLE_LINE1":"1 51979U 22025Z   23061.72550320  .00025342  00000-0  16033-2 0  9999","OBJECT_TYPE":"PAYLOAD","EPHEMERIS_TYPE":"0","REF_FRAME":"TEME","MEAN_MOTION_DOT":"0.00025342"},{"MEAN_MOTION":"15.08840642","DECAY_DATE":null,"GP_ID":"227361495","OBJECT_ID":"2022-025AA","MEAN_ANOMALY":"272.8277","EPOCH":"2023-03-02T20:03:41.382432","RA_OF_ASC_NODE":"310.0208","SEMIMAJOR_AXIS":"6917.878","COUNTRY_CODE":"US","APOAPSIS":"540.832","BSTAR":"0.00071805000000","PERIOD":"95.438","TLE_LINE1":"1 51980U 22025AA  23061.83589563  .00011158  00000-0  71805-3 0  9993","SITE":"AFETR","OBJECT_TYPE":"PAYLOAD","EPHEMERIS_TYPE":"0","MEAN_MOTION_DOT":"0.00011158","REF_FRAME":"TEME","MEAN_MOTION_DDOT":"0.0000000000000","ECCENTRICITY":"0.00015730","REV_AT_EPOCH":"5456","RCS_SIZE":"LARGE","OBJECT_NAME":"STARLINK-3649","INCLINATION":"53.2176","TIME_SYSTEM":"UTC","LAUNCH_DATE":"2022-03-09","TLE_LINE2":"2 51980  53.2176 310.0208 0001573  87.2895 272.8277 15.08840642 54561","PERIAPSIS":"538.655","CENTER_NAME":"EARTH","ARG_OF_PERICENTER":"87.2895","CLASSIFICATION_TYPE":"U","NORAD_CAT_ID":"51980","MEAN_ELEMENT_THEORY":"SGP4","ELEMENT_SET_NO":"999","FILE":"3849487"},{"DECAY_DATE":null,"GP_ID":"227331510","MEAN_MOTION":"15.08867635","MEAN_ANOMALY":"290.9670","OBJECT_ID":"2022-025AB","RA_OF_ASC_NODE":"310.5510","EPOCH":"2023-03-02T17:14:07.213920","APOAPSIS":"539.975","COUNTRY_CODE":"US","SEMIMAJOR_AXIS":"6917.796","SITE":"AFETR","TLE_LINE1":"1 51981U 22025AB  23061.71813905  .00026779  00000-0  16930-2 0  9993","BSTAR":"0.00169300000000","PERIOD":"95.436","OBJECT_TYPE":"PAYLOAD","EPHEMERIS_TYPE":"0","MEAN_MOTION_DOT":"0.00026779","REF_FRAME":"TEME","ECCENTRICITY":"0.00004540","MEAN_MOTION_DDOT":"0.0000000000000","RCS_SIZE":"LARGE","OBJECT_NAME":"STARLINK-3635","INCLINATION":"53.2179","TIME_SYSTEM":"UTC","REV_AT_EPOCH":"5564","LAUNCH_DATE":"2022-03-09","TLE_LINE2":"2 51981  53.2179 310.5510 0000454  69.1371 290.9670 15.08867635 55640","PERIAPSIS":"539.347","CLASSIFICATION_TYPE":"U","ARG_OF_PERICENTER":"69.1371","CENTER_NAME":"EARTH","NORAD_CAT_ID":"51981","MEAN_ELEMENT_THEORY":"SGP4","ELEMENT_SET_NO":"999","FILE":"3849196"},{"ECCENTRICITY":"0.00010600","MEAN_MOTION_DDOT":"0.0000000000000","INCLINATION":"53.2153","RCS_SIZE":"LARGE","TIME_SYSTEM":"UTC","OBJECT_NAME":"STARLINK-3650","REV_AT_EPOCH":"5456","TLE_LINE2":"2 51982  53.2153 310.0443 0001060  27.5779 332.5269 15.08852501 54560","LAUNCH_DATE":"2022-03-09","PERIAPSIS":"538.974","CLASSIFICATION_TYPE":"U","CENTER_NAME":"EARTH","ARG_OF_PERICENTER":"27.5779","NORAD_CAT_ID":"51982","MEAN_ELEMENT_THEORY":"SGP4","ELEMENT_SET_NO":"999","FILE":"3849487","DECAY_DATE":null,"GP_ID":"227362497","MEAN_MOTION":"15.08852501","MEAN_ANOMALY":"332.5269","OBJECT_ID":"2022-025AC","RA_OF_ASC_NODE":"310.0443","EPOCH":"2023-03-02T19:58:23.646432","APOAPSIS":"540.440","SEMIMAJOR_AXIS":"6917.842","COUNTRY_CODE":"US","TLE_LINE1":"1 51982U 22025AC  23061.83221813  .00028217  00000-0  17833-2 0  9990","SITE":"AFETR","PERIOD":"95.437","BSTAR":"0.00178330000000","OBJECT_TYPE":"PAYLOAD","EPHEMERIS_TYPE":"0","MEAN_MOTION_DOT":"0.00028217","REF_FRAME":"TEME"},{"ELEMENT_SET_NO":"999","MEAN_ELEMENT_THEORY":"SGP4","NORAD_CAT_ID":"51983","FILE":"3849487","PERIAPSIS":"538.979","LAUNCH_DATE":"2022-03-09","TLE_LINE2":"2 51983  53.2168 310.5699 0001049  96.6093 263.5019 15.08853436 54540","REV_AT_EPOCH":"5454","OBJECT_NAME":"STARLINK-3655","RCS_SIZE":"LARGE","INCLINATION":"53.2168","TIME_SYSTEM":"UTC","MEAN_MOTION_DDOT":"0.0000000000000","ECCENTRICITY":"0.00010490","ARG_OF_PERICENTER":"96.6093","CENTER_NAME":"EARTH","CLASSIFICATION_TYPE":"U","OBJECT_TYPE":"PAYLOAD","BSTAR":"0.00085619000000","PERIOD":"95.437","SITE":"AFETR","TLE_LINE1":"1 51983U 22025AD  23061.71446168  .00013370  00000-0  85619-3 0  9992","REF_FRAME":"TEME","MEAN_MOTION_DOT":"0.00013370","EPHEMERIS_TYPE":"0","COUNTRY_CODE":"US","SEMIMAJOR_AXIS":"6917.839","APOAPSIS":"540.430","EPOCH":"2023-03-02T17:08:49.489152","RA_OF_ASC_NODE":"310.5699","OBJECT_ID":"2022-025AD","MEAN_ANOMALY":"263.5019","MEAN_MOTION":"15.08853436","DECAY_DATE":null,"GP_ID":"227361739"},{"MEAN_MOTION_DOT":"0.00039638","REF_FRAME":"TEME","EPHEMERIS_TYPE":"0","OBJECT_TYPE":"PAYLOAD","SITE":"AFETR","TLE_LINE1":"1 51984U 22025AE  23061.67767064  .00039638  00000-0  24929-2 0  9990","PERIOD":"95.436","BSTAR":"0.00249290000000","RA_OF_ASC_NODE":"310.7409","EPOCH":"2023-03-02T16:15:50.743296","APOAPSIS":"541.113","COUNTRY_CODE":"US","SEMIMAJOR_AXIS":"6917.803","GP_ID":"227361989","DECAY_DATE":null,"MEAN_MOTION":"15.08865255","MEAN_ANOMALY":"275.3670","OBJECT_ID":"2022-025AE","FILE":"3849487","ELEMENT_SET_NO":"999","NORAD_CAT_ID":"51984","MEAN_ELEMENT_THEORY":"SGP4","CLASSIFICATION_TYPE":"U","ARG_OF_PERICENTER":"84.7561","CENTER_NAME":"EARTH","LAUNCH_DATE":"2022-03-09","TLE_LINE2":"2 51984  53.2135 310.7409 0002088  84.7561 275.3670 15.08865255 54544","PERIAPSIS":"538.224","ECCENTRICITY":"0.00020880","MEAN_MOTION_DDOT":"0.0000000000000","INCLINATION":"53.2135","RCS_SIZE":"LARGE","OBJECT_NAME":"STARLINK-3664","TIME_SYSTEM":"UTC","REV_AT_EPOCH":"5454"}];
